satname,norad_id,inclination_deg,eccentricity,mean_motion_rev_per_day,perigee_km,apogee_km,l1,l2
STARLINK-1554,46055,53.1594,0.0001204,15.31697302,469.92343207650447,471.5726435936149,1 46055U 20055AE  26143.23302432  .00000548  00000+0  29411-4 0  9994,2 46055  53.1594 127.3375 0001204  89.3567 270.7573 15.31697302320498
STARLINK-1564,46058,53.1614,0.0001392,15.30194527,474.2774219767243,476.1853997423068,1 46058U 20055AH  26143.66432189  .00001007  00000+0  46135-4 0  9990,2 46058  53.1614 126.1160 0001392  88.7380 271.3780 15.30194527320540
STARLINK-1570,46059,53.1604,0.0001276,15.31702986,469.8571785606755,471.60500969829627,1 46059U 20055AJ  26143.65247417  .00002298  00000+0  85774-4 0  9993,2 46059  53.1604 125.2714 0001276 101.0506 259.0639 15.31702986320513
STARLINK-1572,46060,53.159,0.0001123,15.30199191,474.44785323990527,475.98711665722476,1 46060U 20055AK  26143.64531663  .00000249  00000+0  20544-4 0  9991,2 46060  53.1590 125.9525 0001123  99.2116 260.9012 15.30199191320515
STARLINK-1573,46061,53.1603,0.0001157,15.3169635,469.9584593801028,471.5432920345429,1 46061U 20055AL  26143.24699119  .00001999  00000+0  76155-4 0  9991,2 46061  53.1603 127.1277 0001157 109.0234 251.0893 15.31696350320492
STARLINK-1577,46063,53.1606,0.0001412,15.31698218,469.77824509828224,471.71236946185854,1 46063U 20055AN  26143.66645113  .00001163  00000+0  49247-4 0  9999,2 46063  53.1606 125.1688 0001412  94.9647 265.1516 15.31698218320555
STARLINK-1583,46064,53.1618,0.0001496,15.30191785,474.2143328992306,476.26486317736453,1 46064U 20055AP  26143.67477612  .00001670  00000+0  68514-4 0  9999,2 46064  53.1618 125.5660 0001496  95.9782 264.1390 15.30191785320540
STARLINK-1536,46070,53.1631,0.0001636,15.31706877,469.5990224005618,471.839968245833,1 46070U 20055AV  26143.87754111  .00001506  00000+0  60291-4 0  9992,2 46070  53.1631 112.0727 0001636  90.1326 269.9862 15.31706877320759
STARLINK-1542,46073,53.1617,0.0001665,15.31691738,469.62428180805,471.9049660488181,1 46073U 20055AY  26143.64091728  .00006274  00000+0  21382-3 0  9992,2 46073  53.1617 116.1356 0001665 106.1565 253.9620 15.31691738320668
STARLINK-1549,46074,53.0521,0.000416,15.28015573,478.8914326444374,484.5988545879263,1 46074U 20055AZ  26143.63580486  .00026536  00000+0  96720-3 0  9997,2 46074  53.0521 113.1807 0004160  56.4769 303.6626 15.28015573320691
STARLINK-1551,46075,53.1609,0.0001136,15.30193988,474.45447739212796,476.01156306072335,1 46075U 20055BA  26143.19805631  .00000942  00000+0  43921-4 0  9990,2 46075  53.1609 114.9799 0001136  89.4739 270.6392 15.30193988320640
STARLINK-1552,46076,53.1598,0.0001065,15.31698953,470.01371054755964,471.4725220123282,1 46076U 20055BB  26143.20201170  .00001380  00000+0  56238-4 0  9993,2 46076  53.1598 114.7346 0001065  83.5277 276.5846 15.31698953320638
STARLINK-1559,46077,53.0228,0.0003053,15.36606596,454.06611291083027,458.2391301537373,1 46077U 20055BC  26143.25782431  .00042845  00000+0  11853-2 0  9996,2 46077  53.0228  84.8388 0003053  53.3246 306.8036 15.36606596321020
STARLINK-1566,46079,53.1598,0.0001155,15.3170366,469.93804094500865,471.5201290106379,1 46079U 20055BE  26143.20665454  .00003603  00000+0  12780-3 0  9998,2 46079  53.1598 114.5676 0001155  89.3311 270.7822 15.31703660320652
STARLINK-1568,46080,53.0598,0.0004301,15.52632807,406.12334254860434,411.9616743617771,1 46080U 20055BF  26143.69497095  .00034792  00000+0  56050-3 0  9998,2 46080  53.0598  33.3474 0004301  51.4193 308.7201 15.52632807321821
STARLINK-1578,46082,53.16,0.0001464,15.31704537,469.7237970860069,471.72914431022673,1 46082U 20055BH  26143.34154020  .00001024  00000+0  44771-4 0  9990,2 46082  53.1600 114.4572 0001464 103.3191 256.7974 15.31704537320667
STARLINK-1579,46083,53.1612,0.0001208,15.31697942,469.91878494132015,471.57347510553336,1 46083U 20055BJ  26143.32783500  .00001578  00000+0  62604-4 0  9999,2 46083  53.1612 114.0566 0001208  83.6064 276.5075 15.31697942320668
STARLINK-1622,46128,53.0165,0.0006899,15.79179641,328.1339173220931,337.3936182014513,1 46128U 20057M   26143.67977713  .00107255  00000+0  58270-3 0  9992,2 46128  53.0165 212.3748 0006899  11.0349 349.0821 15.79179641319156
STARLINK-1623,46129,53.0427,0.0004201,15.71347006,352.21772286845317,357.8749435049958,1 46129U 20057N   26143.91668980  .00014697  00000+0  11770-3 0  9994,2 46129  53.0427 248.3638 0004201 344.1925 237.2450 15.71347006  5961
STARLINK-1624,46130,53.0228,0.0012457,16.16138159,221.82619528096438,238.28985236331482,1 46130U 20057P   26143.87479587  .01656393  24144-2  11515-2 0  9994,2 46130  53.0228 212.8062 0012457 337.9914  22.0585 16.16138159320415
STARLINK-1596,46141,53.0359,0.0005844,15.56631514,393.45453020836067,401.3737944068662,1 46141U 20057AA  26143.50164655  .00050374  00000+0  69679-3 0  9996,2 46141  53.0359 231.2530 0005844 340.8611  19.2179 15.56631514318887
STARLINK-1597,46142,53.0433,0.0001945,15.70914985,354.970904677979,357.59059318231357,1 46142U 20057AB  26143.66096676  .00080156  00000+0  62774-3 0  9991,2 46142  53.0433 289.3477 0001945  25.2900 334.8212 15.70914985318075
STARLINK-1606,46144,53.0378,0.0006764,15.83365386,316.4001215375911,325.46262123039924,1 46144U 20057AD  26143.91668980  .00128467  00000+0  57327-3 0  9990,2 46144  53.0378 242.6715 0006764 322.2335  93.5647 15.83365386  5880
STARLINK-1608,46146,53.1609,0.0001489,15.34403834,461.673245359867,463.71044418984,1 46146U 20057AF  26143.81350998  .00042724  00000+0  12683-2 0  9994,2 46146  53.1609 319.5725 0001489 268.8979  91.1853 15.34403834317698
STARLINK-1667,46155,53.0137,0.0008147,15.83020381,316.44614639709016,327.36319429475225,1 46155U 20057AQ  26143.91668980  .00123368  00000+0  55958-3 0  9995,2 46155  53.0137 210.8998 0008147  10.3454  27.9058 15.83020381  5946
STARLINK-1545,46156,53.0394,0.0005132,15.78002391,332.65533127889194,339.5468252424198,1 46156U 20057AR  26143.91668980  .00000703  00000+0  79513-5 0  9998,2 46156  53.0394 246.5174 0005132 300.6591  24.1423 15.78002391  5986
STARLINK-1595,46159,53.0425,0.0001711,15.69104159,360.307848039859,362.6141384731518,1 46159U 20057AU  26143.67352317  .00066095  00000+0  55981-3 0  9995,2 46159  53.0425 291.8168 0001711 355.7580   4.3421 15.69104159319305
STARLINK-1598,46160,53.0447,0.000289,15.69113732,359.48584560540166,363.3813174015113,1 46160U 20057AV  26143.77405779  .00076300  00000+0  64437-3 0  9995,2 46160  53.0447 277.4627 0002890 152.1318 207.9853 15.69113732319507
